ONEWEB-0435             
1 51632U 22012L   24183.95490639 -.00000067  00000+0 -22876-3 0  9999
2 51632  87.8944 178.4978 0002340  79.2850 280.8541 13.10375759115649
ONEWEB-0436             
1 51633U 22012M   24183.89360716  .00000061  00000+0  12464-3 0  9999
2 51633  87.9175 148.2610 0002276  80.0874 280.0514 13.17647415119485
ONEWEB-0438             
1 51634U 22012N   24183.93828514 -.00000570  00000+0 -16683-2 0  9993
2 51634  87.8942 178.5015 0002104  93.1688 266.9680 13.10372274115675
ONEWEB-0439             
1 51635U 22012P   24183.94161657 -.00000543  00000+0 -15927-2 0  9993
2 51635  87.8943 178.4859 0002045  85.9125 274.2236 13.10373578115656
ONEWEB-0442             
1 51636U 22012Q   24183.88634414 -.00000003  00000+0 -41359-4 0  9994
2 51636  87.9175 148.2979 0001660 104.8272 255.3044 13.17650133119472
ONEWEB-0443             
1 51637U 22012R   24183.90492348  .00000015  00000+0  54411-5 0  9991
2 51637  87.9179 148.3021 0002600  83.1619 276.9808 13.17649512119527
ONEWEB-0444             
1 51638U 22012S   24183.93165800 -.00000565  00000+0 -16553-2 0  9999
2 51638  87.8935 178.5090 0002232  85.3426 274.7956 13.10372375115663
ONEWEB-0445             
1 51639U 22012T   24183.95324092 -.00000230  00000+0 -69445-3 0  9990
2 51639  87.8936 178.4762 0001766  91.5276 268.6053 13.10376392115677
